{
  "norad_id": 52860,
  "name": "STARLINK-4191",
  "history": [
    {
      "epoch": "2026-03-28T21:27:56.654208Z",
      "apogee_km": 540.7139107680359,
      "perigee_km": 538.752002848285,
      "latitude_deg": -7.141776632955744e-07,
      "longitude_deg": 149.61413783997418,
      "height_km": 540.4243888920663,
      "semi_major_axis_km": 6917.86995680816,
      "eccentricity": 0.0001418,
      "inclination_deg": 53.2173,
      "raan_deg": 297.9085,
      "arg_perigee_deg": 77.9833,
      "mean_anomaly_deg": 282.1318,
      "mean_motion_rev_day": 15.08843413
    }
  ]
}